start=new Date('2022-11-02T00:00:00.000Z').valueOf();
sats=[{"MEAN_ELEMENT_THEORY":"SGP4","REV_AT_EPOCH":"9206","TLE_LINE2":"2 47825  53.0549 347.7919 0001629  53.3228 306.7911 15.06395345 92060","COUNTRY_CODE":"US","TLE_LINE1":"1 47825U 21018AQ  22305.37551608  .00001726  00000-0  13477-3 0  9996","MEAN_MOTION_DDOT":"0.0000000000000","EPOCH":"2022-11-01T09:00:44.589312","REF_FRAME":"TEME","GP_ID":"216658976","SEMIMAJOR_AXIS":"6925.363","OBJECT_ID":"2021-018AQ","DECAY_DATE":null,"BSTAR":"0.00013477000000","MEAN_MOTION_DOT":"0.00001726","ECCENTRICITY":"0.00016290","MEAN_ANOMALY":"306.7911","RA_OF_ASC_NODE":"347.7919","MEAN_MOTION":"15.06395345","SITE":"AFETR","OBJECT_TYPE":"PAYLOAD","INCLINATION":"53.0549","LAUNCH_DATE":"2021-03-11","PERIAPSIS":"546.100","ARG_OF_PERICENTER":"53.3228","FILE":"3640409","APOAPSIS":"548.356","PERIOD":"95.592","CENTER_NAME":"EARTH","NORAD_CAT_ID":"47825","RCS_SIZE":"LARGE","OBJECT_NAME":"STARLINK-2410","TIME_SYSTEM":"UTC","ELEMENT_SET_NO":"999","EPHEMERIS_TYPE":"0","CLASSIFICATION_TYPE":"U"},{"DECAY_DATE":null,"OBJECT_ID":"2021-018AR","BSTAR":"0.00010438000000","ECCENTRICITY":"0.00021330","MEAN_MOTION_DOT":"0.00001273","MEAN_ELEMENT_THEORY":"SGP4","REV_AT_EPOCH":"9206","TLE_LINE2":"2 47826  53.0561 347.8049 0002133  37.4342 322.6796 15.06396266 92062","MEAN_MOTION_DDOT":"0.0000000000000","TLE_LINE1":"1 47826U 21018AR  22305.37182599  .00001273  00000-0  10438-3 0  9997","COUNTRY_CODE":"US","SEMIMAJOR_AXIS":"6925.360","GP_ID":"216659220","EPOCH":"2022-11-01T08:55:25.765536","REF_FRAME":"TEME","APOAPSIS":"548.702","FILE":"3640409","NORAD_CAT_ID":"47826","PERIOD":"95.592","CENTER_NAME":"EARTH","RCS_SIZE":"LARGE","OBJECT_NAME":"STARLINK-2411","EPHEMERIS_TYPE":"0","CLASSIFICATION_TYPE":"U","TIME_SYSTEM":"UTC","ELEMENT_SET_NO":"999","MEAN_ANOMALY":"322.6796","SITE":"AFETR","RA_OF_ASC_NODE":"347.8049","MEAN_MOTION":"15.06396266","LAUNCH_DATE":"2021-03-11","INCLINATION":"53.0561","OBJECT_TYPE":"PAYLOAD","PERIAPSIS":"545.748","ARG_OF_PERICENTER":"37.4342"},{"OBJECT_TYPE":"PAYLOAD","LAUNCH_DATE":"2021-03-11","INCLINATION":"53.0549","ARG_OF_PERICENTER":"58.7262","PERIAPSIS":"546.056","MEAN_ANOMALY":"301.3891","MEAN_MOTION":"15.06397937","RA_OF_ASC_NODE":"337.5091","SITE":"AFETR","OBJECT_NAME":"STARLINK-2413","RCS_SIZE":"LARGE","ELEMENT_SET_NO":"999","TIME_SYSTEM":"UTC","CLASSIFICATION_TYPE":"U","EPHEMERIS_TYPE":"0","FILE":"3640409","APOAPSIS":"548.383","PERIOD":"95.592","CENTER_NAME":"EARTH","NORAD_CAT_ID":"47827","COUNTRY_CODE":"US","MEAN_MOTION_DDOT":"0.0000000000000","TLE_LINE1":"1 47827U 21018AS  22305.48704255  .00000814  00000-0  73537-4 0  9999","REF_FRAME":"TEME","EPOCH":"2022-11-01T11:41:20.476320","SEMIMAJOR_AXIS":"6925.355","GP_ID":"216658475","MEAN_ELEMENT_THEORY":"SGP4","TLE_LINE2":"2 47827  53.0549 337.5091 0001680  58.7262 301.3891 15.06397937 92274","REV_AT_EPOCH":"9227","MEAN_MOTION_DOT":"0.00000814","ECCENTRICITY":"0.00016800","OBJECT_ID":"2021-018AS","DECAY_DATE":null,"BSTAR":"0.00007353700000"},{"RA_OF_ASC_NODE":"357.5746","MEAN_MOTION":"15.06393339","SITE":"AFETR","MEAN_ANOMALY":"305.0120","PERIAPSIS":"546.060","ARG_OF_PERICENTER":"55.1028","OBJECT_TYPE":"PAYLOAD","INCLINATION":"53.0564","LAUNCH_DATE":"2021-03-11","CENTER_NAME":"EARTH","PERIOD":"95.593","NORAD_CAT_ID":"47828","FILE":"3640035","APOAPSIS":"548.408","ELEMENT_SET_NO":"999","TIME_SYSTEM":"UTC","EPHEMERIS_TYPE":"0","CLASSIFICATION_TYPE":"U","RCS_SIZE":"LARGE","OBJECT_NAME":"STARLINK-2415","REV_AT_EPOCH":"9159","TLE_LINE2":"2 47828  53.0564 357.5746 0001695  55.1028 305.0120 15.06393339 91590","MEAN_ELEMENT_THEORY":"SGP4","EPOCH":"2022-11-01T10:08:25.410912","REF_FRAME":"TEME","SEMIMAJOR_AXIS":"6925.369","GP_ID":"216628873","COUNTRY_CODE":"US","MEAN_MOTION_DDOT":"0.0000000000000","TLE_LINE1":"1 47828U 21018AT  22305.42251633 -.00000297  00000-0 -10646-5 0  9991","BSTAR":"-0.00000106460000","OBJECT_ID":"2021-018AT","DECAY_DATE":null,"MEAN_MOTION_DOT":"-0.00000297","ECCENTRICITY":"0.00016950"},{"MEAN_MOTION_DOT":"0.00000463","ECCENTRICITY":"0.00018620","BSTAR":"0.00004996900000","OBJECT_ID":"2021-018AU","DECAY_DATE":null,"REF_FRAME":"TEME","EPOCH":"2022-11-01T10:34:57.173664","GP_ID":"216659477","SEMIMAJOR_AXIS":"6925.380","COUNTRY_CODE":"US","MEAN_MOTION_DDOT":"0.0000000000000","TLE_LINE1":"1 47829U 21018AU  22305.44093951  .00000463  00000-0  49969-4 0  9993","TLE_LINE2":"2 47829  53.0562 357.4882 0001862  55.5075 304.6090 15.06389691 91925","REV_AT_EPOCH":"9192","MEAN_ELEMENT_THEORY":"SGP4","TIME_SYSTEM":"UTC","ELEMENT_SET_NO":"999","CLASSIFICATION_TYPE":"U","EPHEMERIS_TYPE":"0","OBJECT_NAME":"STARLINK-2416","RCS_SIZE":"MEDIUM","NORAD_CAT_ID":"47829","PERIOD":"95.593","CENTER_NAME":"EARTH","FILE":"3640409","APOAPSIS":"548.535","ARG_OF_PERICENTER":"55.5075","PERIAPSIS":"545.956","OBJECT_TYPE":"PAYLOAD","INCLINATION":"53.0562","LAUNCH_DATE":"2021-03-11","MEAN_MOTION":"15.06389691","RA_OF_ASC_NODE":"357.4882","SITE":"AFETR","MEAN_ANOMALY":"304.6090"},{"ECCENTRICITY":"0.00017920","MEAN_MOTION_DOT":"-0.00000550","BSTAR":"-0.00001800100000","DECAY_DATE":null,"OBJECT_ID":"2021-018AV","SEMIMAJOR_AXIS":"6925.382","GP_ID":"216659721","REF_FRAME":"TEME","EPOCH":"2022-11-01T12:05:11.735520","TLE_LINE1":"1 47830U 21018AV  22305.50360805 -.00000550  00000-0 -18001-4 0  9999","MEAN_MOTION_DDOT":"0.0000000000000","COUNTRY_CODE":"US","TLE_LINE2":"2 47830  53.0558 357.2115 0001792  51.4021 308.7128 15.06388967 91930","REV_AT_EPOCH":"9193","MEAN_ELEMENT_THEORY":"SGP4","CLASSIFICATION_TYPE":"U","EPHEMERIS_TYPE":"0","ELEMENT_SET_NO":"999","TIME_SYSTEM":"UTC","OBJECT_NAME":"STARLINK-2419","RCS_SIZE":"LARGE","PERIOD":"95.593","NORAD_CAT_ID":"47830","CENTER_NAME":"EARTH","APOAPSIS":"548.488","FILE":"3640409","ARG_OF_PERICENTER":"51.4021","PERIAPSIS":"546.006","LAUNCH_DATE":"2021-03-11","INCLINATION":"53.0558","OBJECT_TYPE":"PAYLOAD","SITE":"AFETR","MEAN_MOTION":"15.06388967","RA_OF_ASC_NODE":"357.2115","MEAN_ANOMALY":"308.7128"},{"MEAN_ANOMALY":"309.6481","RA_OF_ASC_NODE":"331.0138","MEAN_MOTION":"15.06385777","SITE":"AFETR","OBJECT_TYPE":"PAYLOAD","INCLINATION":"53.0543","LAUNCH_DATE":"2021-03-11","PERIAPSIS":"545.915","ARG_OF_PERICENTER":"50.4679","FILE":"3640318","APOAPSIS":"548.599","PERIOD":"95.593","CENTER_NAME":"EARTH","NORAD_CAT_ID":"47831","RCS_SIZE":"LARGE","OBJECT_NAME":"STARLINK-2420","TIME_SYSTEM":"UTC","ELEMENT_SET_NO":"999","EPHEMERIS_TYPE":"0","CLASSIFICATION_TYPE":"U","MEAN_ELEMENT_THEORY":"SGP4","REV_AT_EPOCH":"9199","TLE_LINE2":"2 47831  53.0543 331.0138 0001938  50.4679 309.6481 15.06385777 91994","COUNTRY_CODE":"US","TLE_LINE1":"1 47831U 21018AW  22305.76945894  .00000772  00000-0  70777-4 0  9997","MEAN_MOTION_DDOT":"0.0000000000000","EPOCH":"2022-11-01T18:28:01.252416","REF_FRAME":"TEME","GP_ID":"216634429","SEMIMAJOR_AXIS":"6925.392","OBJECT_ID":"2021-018AW","DECAY_DATE":null,"BSTAR":"0.00007077700000","MEAN_MOTION_DOT":"0.00000772","ECCENTRICITY":"0.00019380"},{"ARG_OF_PERICENTER":"43.1815","PERIAPSIS":"545.635","LAUNCH_DATE":"2021-03-11","INCLINATION":"53.0566","OBJECT_TYPE":"PAYLOAD","SITE":"AFETR","MEAN_MOTION":"15.06386226","RA_OF_ASC_NODE":"346.8086","MEAN_ANOMALY":"316.9357","CLASSIFICATION_TYPE":"U","EPHEMERIS_TYPE":"0","TIME_SYSTEM":"UTC","ELEMENT_SET_NO":"999","OBJECT_NAME":"STARLINK-2422","RCS_SIZE":"LARGE","PERIOD":"95.593","CENTER_NAME":"EARTH","NORAD_CAT_ID":"47832","APOAPSIS":"548.877","FILE":"3640431","SEMIMAJOR_AXIS":"6925.391","GP_ID":"216684467","REF_FRAME":"TEME","EPOCH":"2022-11-01T14:13:54.632352","TLE_LINE1":"1 47832U 21018AX  22305.59299343 -.00000692  00000-0 -27522-4 0  9993","MEAN_MOTION_DDOT":"0.0000000000000","COUNTRY_CODE":"US","TLE_LINE2":"2 47832  53.0566 346.8086 0002341  43.1815 316.9357 15.06386226 92091","REV_AT_EPOCH":"9209","MEAN_ELEMENT_THEORY":"SGP4","ECCENTRICITY":"0.00023410","MEAN_MOTION_DOT":"-0.00000692","BSTAR":"-0.00002752200000","DECAY_DATE":null,"OBJECT_ID":"2021-018AX"},{"NORAD_CAT_ID":"47833","PERIOD":"95.593","CENTER_NAME":"EARTH","FILE":"3640036","APOAPSIS":"548.725","TIME_SYSTEM":"UTC","ELEMENT_SET_NO":"999","EPHEMERIS_TYPE":"0","CLASSIFICATION_TYPE":"U","RCS_SIZE":"LARGE","OBJECT_NAME":"STARLINK-2423","RA_OF_ASC_NODE":"347.2815","MEAN_MOTION":"15.06387442","SITE":"AFETR","MEAN_ANOMALY":"320.6788","PERIAPSIS":"545.779","ARG_OF_PERICENTER":"39.4355","OBJECT_TYPE":"PAYLOAD","LAUNCH_DATE":"2021-03-11","INCLINATION":"53.0557","BSTAR":"0.00016445000000","OBJECT_ID":"2021-018AY","DECAY_DATE":null,"MEAN_MOTION_DOT":"0.00002168","ECCENTRICITY":"0.00021270","REV_AT_EPOCH":"9174","TLE_LINE2":"2 47833  53.0557 347.2815 0002127  39.4355 320.6788 15.06387442 91748","MEAN_ELEMENT_THEORY":"SGP4","EPOCH":"2022-11-01T11:39:58.855104","REF_FRAME":"TEME","GP_ID":"216628882","SEMIMAJOR_AXIS":"6925.387","COUNTRY_CODE":"US","MEAN_MOTION_DDOT":"0.0000000000000","TLE_LINE1":"1 47833U 21018AY  22305.48609786  .00002168  00000-0  16445-3 0  9997"},{"OBJECT_ID":"2021-018AZ","DECAY_DATE":null,"BSTAR":"0.00004180100000","MEAN_MOTION_DOT":"0.00000341","ECCENTRICITY":"0.00019320","MEAN_ELEMENT_THEORY":"SGP4","REV_AT_EPOCH":"9212","TLE_LINE2":"2 47834  53.0570 347.5346 0001932  47.2208 312.8943 15.06384316 92129","COUNTRY_CODE":"US","MEAN_MOTION_DDOT":"0.0000000000000","TLE_LINE1":"1 47834U 21018AZ  22305.43081130  .00000341  00000-0  41801-4 0  9996","EPOCH":"2022-11-01T10:20:22.096320","REF_FRAME":"TEME","GP_ID":"216659221","SEMIMAJOR_AXIS":"6925.397","FILE":"3640409","APOAPSIS":"548.600","PERIOD":"95.593","NORAD_CAT_ID":"47834","CENTER_NAME":"EARTH","RCS_SIZE":"LARGE","OBJECT_NAME":"STARLINK-2424","TIME_SYSTEM":"UTC","ELEMENT_SET_NO":"999","EPHEMERIS_TYPE":"0","CLASSIFICATION_TYPE":"U","MEAN_ANOMALY":"312.8943","RA_OF_ASC_NODE":"347.5346","MEAN_MOTION":"15.06384316","SITE":"AFETR","OBJECT_TYPE":"PAYLOAD","INCLINATION":"53.0570","LAUNCH_DATE":"2021-03-11","PERIAPSIS":"545.924","ARG_OF_PERICENTER":"47.2208"}];
